{
 "generated_at": "2026-06-27T07:50:14Z",
 "sources": [
  {
   "name": "CelesTrak",
   "url": "https://celestrak.org/NORAD/elements/",
   "license": "frei verfügbar; Attribution. Ursprünglich USSPACECOM/Space-Track."
  },
  {
   "name": "GCAT (J. McDowell, planet4589.org)",
   "url": "https://planet4589.org/space/gcat/",
   "license": "CC-BY 4.0"
  }
 ],
 "satellites": [
  {
   "norad": 28376,
   "name": "AURA",
   "intl": "2004-026A",
   "group": "resource",
   "gcat": {
    "class": "C",
    "category": "EOSCI",
    "owner": "GSFC",
    "state": "US"
   },
   "omm": {
    "OBJECT_NAME": "AURA",
    "OBJECT_ID": "2004-026A",
    "EPOCH": "2026-06-26T21:56:44.855520",
    "MEAN_MOTION": 14.61342853,
    "ECCENTRICITY": 0.00011656,
    "INCLINATION": 98.342,
    "RA_OF_ASC_NODE": 134.4483,
    "ARG_OF_PERICENTER": 83.1778,
    "MEAN_ANOMALY": 276.9555,
    "EPHEMERIS_TYPE": 0,
    "CLASSIFICATION_TYPE": "U",
    "NORAD_CAT_ID": 28376,
    "ELEMENT_SET_NO": 999,
    "REV_AT_EPOCH": 16763,
    "BSTAR": 0.00016179121,
    "MEAN_MOTION_DOT": 0.00000751,
    "MEAN_MOTION_DDOT": 0
   }
  },
  {
   "norad": 63772,
   "name": "BIOMASS",
   "intl": "2025-090A",
   "group": "resource",
   "gcat": {
    "class": "C",
    "category": "EOSCI",
    "owner": "ESA",
    "state": "I-ESA"
   },
   "omm": {
    "OBJECT_NAME": "BIOMASS",
    "OBJECT_ID": "2025-090A",
    "EPOCH": "2026-06-25T10:04:41.476800",
    "MEAN_MOTION": 14.67536962,
    "ECCENTRICITY": 0.0001429,
    "INCLINATION": 98.0741,
    "RA_OF_ASC_NODE": 3.6181,
    "ARG_OF_PERICENTER": 94.8977,
    "MEAN_ANOMALY": 265.2391,
    "EPHEMERIS_TYPE": 0,
    "CLASSIFICATION_TYPE": "U",
    "NORAD_CAT_ID": 63772,
    "ELEMENT_SET_NO": 999,
    "REV_AT_EPOCH": 6189,
    "BSTAR": 0.00012495,
    "MEAN_MOTION_DOT": 0.00000661,
    "MEAN_MOTION_DDOT": 0
   }
  },
  {
   "norad": 57693,
   "name": "CAPELLA-11 (ACADIA-1)",
   "intl": "2023-126A",
   "group": "sar",
   "gcat": {
    "class": "B",
    "category": "IMG-R",
    "owner": "CAPSP",
    "state": "US"
   },
   "omm": {
    "OBJECT_NAME": "CAPELLA-11 (ACADIA-1)",
    "OBJECT_ID": "2023-126A",
    "EPOCH": "2026-06-25T22:22:45.673248",
    "MEAN_MOTION": 14.83928836,
    "ECCENTRICITY": 0.0001992,
    "INCLINATION": 53.0092,
    "RA_OF_ASC_NODE": 146.9516,
    "ARG_OF_PERICENTER": 103.1216,
    "MEAN_ANOMALY": 256.9985,
    "EPHEMERIS_TYPE": 0,
    "CLASSIFICATION_TYPE": "U",
    "NORAD_CAT_ID": 57693,
    "ELEMENT_SET_NO": 999,
    "REV_AT_EPOCH": 15342,
    "BSTAR": 0.00052665,
    "MEAN_MOTION_DOT": 0.00004191,
    "MEAN_MOTION_DDOT": 0
   }
  },
  {
   "norad": 60419,
   "name": "CAPELLA-13 (ACADIA-3)",
   "intl": "2024-142A",
   "group": "sar",
   "gcat": {
    "class": "B",
    "category": "IMG-R",
    "owner": "CAPSP",
    "state": "US"
   },
   "omm": {
    "OBJECT_NAME": "CAPELLA-13 (ACADIA-3)",
    "OBJECT_ID": "2024-142A",
    "EPOCH": "2026-06-26T16:56:40.730208",
    "MEAN_MOTION": 14.87664158,
    "ECCENTRICITY": 0.00014656,
    "INCLINATION": 53.0045,
    "RA_OF_ASC_NODE": 16.0206,
    "ARG_OF_PERICENTER": 76.2691,
    "MEAN_ANOMALY": 283.8453,
    "EPHEMERIS_TYPE": 0,
    "CLASSIFICATION_TYPE": "U",
    "NORAD_CAT_ID": 60419,
    "ELEMENT_SET_NO": 999,
    "REV_AT_EPOCH": 10182,
    "BSTAR": 0.00064120248,
    "MEAN_MOTION_DOT": 0.0000566,
    "MEAN_MOTION_DDOT": 0
   }
  },
  {
   "norad": 59444,
   "name": "CAPELLA-14 (ACADIA-4)",
   "intl": "2024-066C",
   "group": "sar",
   "gcat": {
    "class": "B",
    "category": "IMG-R",
    "owner": "CAPSP",
    "state": "US"
   },
   "omm": {
    "OBJECT_NAME": "CAPELLA-14 (ACADIA-4)",
    "OBJECT_ID": "2024-066C",
    "EPOCH": "2026-06-25T05:56:02.889888",
    "MEAN_MOTION": 15.10579017,
    "ECCENTRICITY": 0.00004514,
    "INCLINATION": 45.6022,
    "RA_OF_ASC_NODE": 212.6321,
    "ARG_OF_PERICENTER": 339.4671,
    "MEAN_ANOMALY": 20.6197,
    "EPHEMERIS_TYPE": 0,
    "CLASSIFICATION_TYPE": "U",
    "NORAD_CAT_ID": 59444,
    "ELEMENT_SET_NO": 999,
    "REV_AT_EPOCH": 11370,
    "BSTAR": 0.0010853715,
    "MEAN_MOTION_DOT": 0.00017992,
    "MEAN_MOTION_DDOT": 0
   }
  },
  {
   "norad": 60544,
   "name": "CAPELLA-15 (ACADIA-5)",
   "intl": "2024-149CE",
   "group": "sar",
   "gcat": {
    "class": "B",
    "category": "IMG-R",
    "owner": "CAPSP",
    "state": "US"
   },
   "omm": {
    "OBJECT_NAME": "CAPELLA-15 (ACADIA-5)",
    "OBJECT_ID": "2024-149CE",
    "EPOCH": "2026-06-26T21:50:53.511648",
    "MEAN_MOTION": 14.92378834,
    "ECCENTRICITY": 0.00042892,
    "INCLINATION": 97.6775,
    "RA_OF_ASC_NODE": 250.5707,
    "ARG_OF_PERICENTER": 48.2807,
    "MEAN_ANOMALY": 311.8778,
    "EPHEMERIS_TYPE": 0,
    "CLASSIFICATION_TYPE": "U",
    "NORAD_CAT_ID": 60544,
    "ELEMENT_SET_NO": 999,
    "REV_AT_EPOCH": 10130,
    "BSTAR": 0.00037297081,
    "MEAN_MOTION_DOT": 0.00003763,
    "MEAN_MOTION_DDOT": 0
   }
  },
  {
   "norad": 65318,
   "name": "CAPELLA-16 (ACADIA-6)",
   "intl": "2025-188D",
   "group": "sar",
   "gcat": {
    "class": "B",
    "category": "IMG-R",
    "owner": "CAPSP",
    "state": "US"
   },
   "omm": {
    "OBJECT_NAME": "CAPELLA-16 (ACADIA-6)",
    "OBJECT_ID": "2025-188D",
    "EPOCH": "2026-06-26T22:28:15.298752",
    "MEAN_MOTION": 14.9384535,
    "ECCENTRICITY": 0.00044114,
    "INCLINATION": 97.7382,
    "RA_OF_ASC_NODE": 252.9414,
    "ARG_OF_PERICENTER": 186.5708,
    "MEAN_ANOMALY": 173.5455,
    "EPHEMERIS_TYPE": 0,
    "CLASSIFICATION_TYPE": "U",
    "NORAD_CAT_ID": 65318,
    "ELEMENT_SET_NO": 999,
    "REV_AT_EPOCH": 4537,
    "BSTAR": 0.00065814699,
    "MEAN_MOTION_DOT": 0.00006937,
    "MEAN_MOTION_DDOT": 0
   }
  },
  {
   "norad": 64583,
   "name": "CAPELLA-17 (ACADIA-7)",
   "intl": "2025-135BH",
   "group": "sar",
   "gcat": {
    "class": "B",
    "category": "IMG-R",
    "owner": "CAPSP",
    "state": "US"
   },
   "omm": {
    "OBJECT_NAME": "CAPELLA-17 (ACADIA-7)",
    "OBJECT_ID": "2025-135BH",
    "EPOCH": "2026-06-26T20:45:33.736320",
    "MEAN_MOTION": 14.91421031,
    "ECCENTRICITY": 0.00041582,
    "INCLINATION": 97.7695,
    "RA_OF_ASC_NODE": 291.343,
    "ARG_OF_PERICENTER": 333.6539,
    "MEAN_ANOMALY": 26.4468,
    "EPHEMERIS_TYPE": 0,
    "CLASSIFICATION_TYPE": "U",
    "NORAD_CAT_ID": 64583,
    "ELEMENT_SET_NO": 999,
    "REV_AT_EPOCH": 5529,
    "BSTAR": 0.00081411237,
    "MEAN_MOTION_DOT": 0.00008084,
    "MEAN_MOTION_DDOT": 0
   }
  },
  {
   "norad": 67385,
   "name": "CAPELLA-18 (ACADIA-8)",
   "intl": "2026-004Y",
   "group": "sar",
   "gcat": {
    "class": "B",
    "category": "IMG-R",
    "owner": "CAPSP",
    "state": "US"
   },
   "omm": {
    "OBJECT_NAME": "CAPELLA-18 (ACADIA-8)",
    "OBJECT_ID": "2026-004Y",
    "EPOCH": "2026-06-26T23:14:32.980992",
    "MEAN_MOTION": 14.86649278,
    "ECCENTRICITY": 0.00014837,
    "INCLINATION": 97.8009,
    "RA_OF_ASC_NODE": 176.3188,
    "ARG_OF_PERICENTER": 90.841,
    "MEAN_ANOMALY": 269.2976,
    "EPHEMERIS_TYPE": 0,
    "CLASSIFICATION_TYPE": "U",
    "NORAD_CAT_ID": 67385,
    "ELEMENT_SET_NO": 999,
    "REV_AT_EPOCH": 2473,
    "BSTAR": 0.00058752301,
    "MEAN_MOTION_DOT": 0.00005165,
    "MEAN_MOTION_DDOT": 0
   }
  },
  {
   "norad": 67384,
   "name": "CAPELLA-19 (ACADIA-9)",
   "intl": "2026-004X",
   "group": "sar",
   "gcat": {
    "class": "B",
    "category": "IMG-R",
    "owner": "CAPSP",
    "state": "US"
   },
   "omm": {
    "OBJECT_NAME": "CAPELLA-19 (ACADIA-9)",
    "OBJECT_ID": "2026-004X",
    "EPOCH": "2026-06-26T23:00:04.194432",
    "MEAN_MOTION": 14.86640177,
    "ECCENTRICITY": 0.00016149,
    "INCLINATION": 97.7997,
    "RA_OF_ASC_NODE": 176.1575,
    "ARG_OF_PERICENTER": 93.0114,
    "MEAN_ANOMALY": 267.1286,
    "EPHEMERIS_TYPE": 0,
    "CLASSIFICATION_TYPE": "U",
    "NORAD_CAT_ID": 67384,
    "ELEMENT_SET_NO": 999,
    "REV_AT_EPOCH": 2472,
    "BSTAR": 0.00063326892,
    "MEAN_MOTION_DOT": 0.0000557,
    "MEAN_MOTION_DDOT": 0
   }
  }
 ]
}
