AURA                    
1 28376U 04026A   26177.91440805  .00000751  00000+0  16179-3 0  9991
2 28376  98.3420 134.4483 0001165  83.1778 276.9555 14.61342853167637
CAPELLA-11 (ACADIA-1)   
1 57693U 23126A   26176.93247307  .00004191  00000+0  52665-3 0  9992
2 57693  53.0092 146.9516 0001992 103.1216 256.9985 14.83928836153429
CAPELLA-14 (ACADIA-4)   
1 59444U 24066C   26176.24725567  .00017992  00000+0  10854-2 0  9991
2 59444  45.6022 212.6321 0000451 339.4671  20.6197 15.10579017113700
CAPELLA-13 (ACADIA-3)   
1 60419U 24142A   26177.70602697  .00005660  00000+0  64120-3 0  9995
2 60419  53.0045  16.0206 0001465  76.2691 283.8453 14.87664158101826
CAPELLA-15 (ACADIA-5)   
1 60544U 24149CE  26177.91034157  .00003763  00000+0  37297-3 0  9991
2 60544  97.6775 250.5707 0004289  48.2807 311.8778 14.92378834101309
BIOMASS                 
1 63772U 25090A   26176.41992450  .00000661  00000+0  12495-3 0  9993
2 63772  98.0741   3.6181 0001429  94.8977 265.2391 14.67536962 61896
CAPELLA-17 (ACADIA-7)   
1 64583U 25135BH  26177.86497380  .00008084  00000+0  81411-3 0  9997
2 64583  97.7695 291.3430 0004158 333.6539  26.4468 14.91421031 55290
CAPELLA-16 (ACADIA-6)   
1 65318U 25188D   26177.93628818  .00006937  00000+0  65815-3 0  9997
2 65318  97.7382 252.9414 0004411 186.5708 173.5455 14.93845350 45374
CAPELLA-19 (ACADIA-9)   
1 67384U 26004X   26177.95838188  .00005570  00000+0  63327-3 0  9993
2 67384  97.7997 176.1575 0001614  93.0114 267.1286 14.86640177 24721
CAPELLA-18 (ACADIA-8)   
1 67385U 26004Y   26177.96843728  .00005165  00000+0  58752-3 0  9997
2 67385  97.8009 176.3188 0001483  90.8410 269.2976 14.86649278 24738
